{"type":"FeatureCollection","features":[{"type":"Feature","geometry":{"type":"MultiPolygon","coordinates":[[[[144.951438,-37.813168],[144.95392,-37.812466],[144.956418,-37.811762],[144.955919,-37.810678],[144.955368,-37.809451],[144.955434,-37.80907],[144.955547,-37.808332],[144.955979,-37.80588],[144.957112,-37.806006],[144.958459,-37.806155],[144.959499,-37.80627],[144.959934,-37.806323],[144.961415,-37.806488],[144.961864,-37.806537],[144.962894,-37.80665],[144.964373,-37.806814],[144.964919,-37.806875],[144.965859,-37.806979],[144.965859,-37.806979],[144.967345,-37.807138],[144.967735,-37.807179],[144.968571,-37.807267],[144.968826,-37.807293],[144.970933,-37.807518],[144.971285,-37.807555],[144.971677,-37.808407],[144.972132,-37.809393],[144.972588,-37.810372],[144.97273,-37.81068],[144.973042,-37.811357],[144.97349,-37.812339],[144.973879,-37.813188],[144.973939,-37.813319],[144.974088,-37.81364],[144.974396,-37.814307],[144.974848,-37.815289],[144.97499,-37.815254],[144.976407,-37.815409],[144.976368,-37.815654],[144.976009,-37.815667],[144.975387,-37.815623],[144.974909,-37.815689],[144.974353,-37.815838],[144.973407,-37.815709],[144.972382,-37.816008],[144.972573,-37.816374],[144.972781,-37.816667],[144.973227,-37.817249],[144.973256,-37.817269],[144.97339,-37.817355],[144.973299,-37.817499],[144.972764,-37.817672],[144.972735,-37.817645],[144.972262,-37.817758],[144.972259,-37.817749],[144.971107,-37.817991],[144.970917,-37.818046],[144.971405,-37.819094],[144.968247,-37.81922],[144.966683,-37.81939],[144.966234,-37.819439],[144.964901,-37.819713],[144.962332,-37.820242],[144.962148,-37.820305],[144.961389,-37.820565],[144.960558,-37.820849],[144.958283,-37.821951],[144.958078,-37.822054],[144.955997,-37.823103],[144.95505,-37.821108],[144.955086,-37.821098],[144.954625,-37.820098],[144.954152,-37.819069],[144.953698,-37.818084],[144.953248,-37.817104],[144.952794,-37.816118],[144.952342,-37.815137],[144.951898,-37.81417],[144.951438,-37.813168]]]]},"properties":{"featurenam":"Melbourne (CBD)"}},{"type":"Feature","geometry":{"type":"MultiPolygon","coordinates":[[[[144.951438,-37.813168],[144.950329,-37.813482],[144.94929,-37.812568],[144.948256,-37.811657],[144.948156,-37.811569],[144.947825,-37.810957],[144.94602,-37.811646],[144.945605,-37.811115],[144.945198,-37.810598],[144.944777,-37.810066],[144.94435,-37.809521],[144.943367,-37.808279],[144.942698,-37.807418],[144.941751,-37.806212],[144.941243,-37.805596],[144.941051,-37.805362],[144.941076,-37.805219],[144.94119,-37.80459],[144.942025,-37.804673],[144.942079,-37.804371],[144.942657,-37.804433],[144.943217,-37.804492],[144.944191,-37.804599],[144.94515,-37.804706],[144.947804,-37.804963],[144.947937,-37.804978],[144.949247,-37.805126],[144.950731,-37.805294],[144.952205,-37.805458],[144.953686,-37.805624],[144.955161,-37.80579],[144.955166,-37.80579],[144.955979,-37.80588],[144.955547,-37.808332],[144.955434,-37.80907],[144.955368,-37.809451],[144.955919,-37.810678],[144.956418,-37.811762],[144.95392,-37.812466],[144.951438,-37.813168]]]]},"properties":{"featurenam":"West Melbourne (Residential)"}}]}