{"type":"FeatureCollection","features":[{"type":"Feature","geometry":{"type":"Polygon","coordinates":[[[144.96817,-37.8076],[144.968146,-37.807008],[144.968073,-37.806419],[144.967951,-37.805835],[144.967783,-37.805259],[144.967567,-37.804692],[144.967304,-37.804138],[144.966997,-37.803599],[144.966647,-37.803077],[144.966254,-37.802574],[144.96582,-37.802093],[144.965348,-37.801635],[144.96484,-37.801203],[144.964297,-37.800798],[144.963722,-37.800423],[144.963117,-37.800078],[144.962485,-37.799766],[144.961829,-37.799486],[144.961151,-37.799242],[144.960455,-37.799034],[144.959743,-37.798862],[144.959018,-37.798727],[144.958284,-37.798631],[144.957544,-37.798573],[144.9568,-37.798554],[144.956056,-37.798573],[144.955316,-37.798631],[144.954582,-37.798727],[144.953857,-37.798862],[144.953145,-37.799034],[144.952449,-37.799242],[144.951771,-37.799486],[144.951115,-37.799766],[144.950483,-37.800078],[144.949878,-37.800423],[144.949303,-37.800798],[144.94876,-37.801203],[144.948252,-37.801635],[144.94778,-37.802093],[144.947346,-37.802574],[144.946953,-37.803077],[144.946603,-37.803599],[144.946296,-37.804138],[144.946033,-37.804692],[144.945817,-37.805259],[144.945649,-37.805835],[144.945527,-37.806419],[144.945454,-37.807008],[144.94543,-37.8076],[144.945454,-37.808192],[144.945527,-37.808781],[144.945649,-37.809365],[144.945817,-37.809941],[144.946033,-37.810508],[144.946296,-37.811062],[144.946603,-37.811601],[144.946953,-37.812123],[144.947346,-37.812626],[144.94778,-37.813107],[144.948252,-37.813565],[144.94876,-37.813997],[144.949303,-37.814402],[144.949878,-37.814777],[144.950483,-37.815122],[144.951115,-37.815434],[144.951771,-37.815714],[144.952449,-37.815958],[144.953145,-37.816166],[144.953857,-37.816338],[144.954582,-37.816473],[144.955316,-37.816569],[144.956056,-37.816627],[144.9568,-37.816646],[144.957544,-37.816627],[144.958284,-37.816569],[144.959018,-37.816473],[144.959743,-37.816338],[144.960455,-37.816166],[144.961151,-37.815958],[144.961829,-37.815714],[144.962485,-37.815434],[144.963117,-37.815122],[144.963722,-37.814777],[144.964297,-37.814402],[144.96484,-37.813997],[144.965348,-37.813565],[144.96582,-37.813107],[144.966254,-37.812626],[144.966647,-37.812123],[144.966997,-37.811601],[144.967304,-37.811062],[144.967567,-37.810508],[144.967783,-37.809941],[144.967951,-37.809365],[144.968073,-37.808781],[144.968146,-37.808192],[144.96817,-37.8076]]]},"properties":{"name":"Queen Victoria Market 1 km study area","radius_m":1000}}]}